[{"OBJECT_NAME":"SUPERVIEW NEO-3 02","OBJECT_ID":"2025-051A","EPOCH":"2026-03-09T23:45:14.766336","MEAN_MOTION":15.23140616,"ECCENTRICITY":0.00022991,"INCLINATION":97.4564,"RA_OF_ASC_NODE":148.8655,"ARG_OF_PERICENTER":127.1916,"MEAN_ANOMALY":232.9531,"EPHEMERIS_TYPE":0,"CLASSIFICATION_TYPE":"U","NORAD_CAT_ID":63208,"ELEMENT_SET_NO":999,"REV_AT_EPOCH":5473,"BSTAR":0.00055163921,"MEAN_MOTION_DOT":0.00012967,"MEAN_MOTION_DDOT":0},{"OBJECT_NAME":"HERMES-6","OBJECT_ID":"2025-052BK","EPOCH":"2026-03-09T21:29:23.907840","MEAN_MOTION":15.21631048,"ECCENTRICITY":0.00073357,"INCLINATION":97.4102,"RA_OF_ASC_NODE":322.8569,"ARG_OF_PERICENTER":144.5073,"MEAN_ANOMALY":215.6652,"EPHEMERIS_TYPE":0,"CLASSIFICATION_TYPE":"U","NORAD_CAT_ID":63489,"ELEMENT_SET_NO":999,"REV_AT_EPOCH":5472,"BSTAR":0.00042019054,"MEAN_MOTION_DOT":9.433e-5,"MEAN_MOTION_DDOT":0}]
